{"type": "FeatureCollection", "features": [ {"type": "Feature", "properties": {"norad_id": 37216, "name": "COSMO-SKYMED 4", "group": "resource", "lat": 71.49278394137131, "lon": 152.98144220603749, "alt_km": 614.6382740817489, "timestamp": "2025-12-22T05:49:03.139056+00:00", "meta": {"OBJECT_NAME": "COSMO-SKYMED 4", "OBJECT_ID": "2010-060A", "EPOCH": "2025-12-21T19:46:01.333920", "MEAN_MOTION": 14.82156832, "ECCENTRICITY": 0.0001427, "INCLINATION": 97.8799, "RA_OF_ASC_NODE": 177.0099, "ARG_OF_PERICENTER": 82.4436, "MEAN_ANOMALY": 277.6939, "EPHEMERIS_TYPE": 0, "CLASSIFICATION_TYPE": "U", "NORAD_CAT_ID": 37216, "ELEMENT_SET_NO": 999, "REV_AT_EPOCH": 81829, "BSTAR": 0.00011189, "MEAN_MOTION_DOT": 8.39e-06, "MEAN_MOTION_DDOT": 0}, "tle": {"line1": "1 37216U 10060A   25355.82362655  .00000839  00000+0  11189-3 0  9995", "line2": "2 37216  97.8799 177.0099 0001427  82.4436 277.6939 14.82156832818295"}}, "geometry": {"type": "Point", "coordinates": [152.98144220603749, 71.49278394137131]}}, {"type": "Feature", "properties": {"norad_id": 37387, "name": "RESOURCESAT-2", "group": "resource", "lat": 48.83955409610218, "lon": -110.0587467757015, "alt_km": 817.2150602356705, "timestamp": "2025-12-22T05:49:03.139066+00:00", "meta": {"OBJECT_NAME": "RESOURCESAT-2", "OBJECT_ID": "2011-015A", "EPOCH": "2025-12-21T19:04:18.979104", "MEAN_MOTION": 14.21600541, "ECCENTRICITY": 0.0006003, "INCLINATION": 98.7864, "RA_OF_ASC_NODE": 59.3054, "ARG_OF_PERICENTER": 18.1149, "MEAN_ANOMALY": 342.0241, "EPHEMERIS_TYPE": 0, "CLASSIFICATION_TYPE": "U", "NORAD_CAT_ID": 37387, "ELEMENT_SET_NO": 999, "REV_AT_EPOCH": 76097, "BSTAR": 6.6729e-05, "MEAN_MOTION_DOT": 1.02e-06, "MEAN_MOTION_DDOT": 0}, "tle": {"line1": "1 37387U 11015A   25355.79466411  .00000102  00000+0  66729-4 0  9990", "line2": "2 37387  98.7864  59.3054 0006003  18.1149 342.0241 14.21600541760970"}}, "geometry": {"type": "Point", "coordinates": [-110.0587467757015, 48.83955409610218]}}, {"type": "Feature", "properties": {"norad_id": 37781, "name": "HAIYANG-2A", "group": "resource", "lat": 22.07117003688987, "lon": -179.14471668240293, "alt_km": 967.5556639026445, "timestamp": "2025-12-22T05:49:03.139077+00:00", "meta": {"OBJECT_NAME": "HAIYANG-2A", "OBJECT_ID": "2011-043A", "EPOCH": "2025-12-21T20:20:55.186080", "MEAN_MOTION": 13.78835362, "ECCENTRICITY": 0.0001625, "INCLINATION": 99.3371, "RA_OF_ASC_NODE": 356.6419, "ARG_OF_PERICENTER": 71.8688, "MEAN_ANOMALY": 288.2641, "EPHEMERIS_TYPE": 0, "CLASSIFICATION_TYPE": "U", "NORAD_CAT_ID": 37781, "ELEMENT_SET_NO": 999, "REV_AT_EPOCH": 72224, "BSTAR": -0.00016936, "MEAN_MOTION_DOT": -2.16e-06, "MEAN_MOTION_DDOT": 0}, "tle": {"line1": "1 37781U 11043A   25355.84786095 -.00000216  00000+0 -16936-3 0  9990", "line2": "2 37781  99.3371 356.6419 0001625  71.8688 288.2641 13.78835362722240"}}, "geometry": {"type": "Point", "coordinates": [-179.14471668240293, 22.07117003688987]}}, {"type": "Feature", "properties": {"norad_id": 37791, "name": "RASAT", "group": "resource", "lat": 74.45395881431821, "lon": 54.71553794734379, "alt_km": 649.0483588897605, "timestamp": "2025-12-22T05:49:03.139087+00:00", "meta": {"OBJECT_NAME": "RASAT", "OBJECT_ID": "2011-044D", "EPOCH": "2025-12-21T20:17:00.192768", "MEAN_MOTION": 14.67920586, "ECCENTRICITY": 0.0021499, "INCLINATION": 98.0651, "RA_OF_ASC_NODE": 84.9682, "ARG_OF_PERICENTER": 37.6032, "MEAN_ANOMALY": 100.8831, "EPHEMERIS_TYPE": 0, "CLASSIFICATION_TYPE": "U", "NORAD_CAT_ID": 37791, "ELEMENT_SET_NO": 999, "REV_AT_EPOCH": 76716, "BSTAR": 7.7933e-05, "MEAN_MOTION_DOT": 3.98e-06, "MEAN_MOTION_DDOT": 0}, "tle": {"line1": "1 37791U 11044D   25355.84514112  .00000398  00000+0  77933-4 0  9995", "line2": "2 37791  98.0651  84.9682 0021499  37.6032 100.8831 14.67920586767167"}}, "geometry": {"type": "Point", "coordinates": [54.71553794734379, 74.45395881431821]}}, {"type": "Feature", "properties": {"norad_id": 37841, "name": "SRMSAT", "group": "resource", "lat": -14.28006992463962, "lon": -85.06711822683941, "alt_km": 862.0050667629785, "timestamp": "2025-12-22T05:49:03.139098+00:00", "meta": {"OBJECT_NAME": "SRMSAT", "OBJECT_ID": "2011-058D", "EPOCH": "2025-12-21T11:55:34.039200", "MEAN_MOTION": 14.11514217, "ECCENTRICITY": 0.00119651, "INCLINATION": 19.9726, "RA_OF_ASC_NODE": 54.9508, "ARG_OF_PERICENTER": 49.5052, "MEAN_ANOMALY": 340.41, "EPHEMERIS_TYPE": 0, "CLASSIFICATION_TYPE": "U", "NORAD_CAT_ID": 37841, "ELEMENT_SET_NO": 999, "REV_AT_EPOCH": 73268, "BSTAR": 7.0305754e-05, "MEAN_MOTION_DOT": 3.94e-06, "MEAN_MOTION_DDOT": 0}, "tle": {"line1": "1 37841U 11058D   25355.49692175  .00000394  00000+0  70306-4 0  9996", "line2": "2 37841  19.9726  54.9508 0011965  49.5052 340.4100 14.11514217732682"}}, "geometry": {"type": "Point", "coordinates": [-85.06711822683941, -14.28006992463962]}}, {"type": "Feature", "properties": {"norad_id": 38012, "name": "PLEIADES 1A", "group": "resource", "lat": -81.49226906546423, "lon": 142.97684343390986, "alt_km": 705.9253073358495, "timestamp": "2025-12-22T05:49:03.139108+00:00", "meta": {"OBJECT_NAME": "PLEIADES 1A", "OBJECT_ID": "2011-076F", "EPOCH": "2025-12-21T20:55:41.966400", "MEAN_MOTION": 14.58568069, "ECCENTRICITY": 0.0001157, "INCLINATION": 98.1819, "RA_OF_ASC_NODE": 68.4999, "ARG_OF_PERICENTER": 75.1023, "MEAN_ANOMALY": 53.5524, "EPHEMERIS_TYPE": 0, "CLASSIFICATION_TYPE": "U", "NORAD_CAT_ID": 38012, "ELEMENT_SET_NO": 999, "REV_AT_EPOCH": 74614, "BSTAR": 2.5782e-05, "MEAN_MOTION_DOT": 7.4e-07, "MEAN_MOTION_DDOT": 0}, "tle": {"line1": "1 38012U 11076F   25355.87201350  .00000074  00000+0  25782-4 0  9993", "line2": "2 38012  98.1819  68.4999 0001157  75.1023  53.5524 14.58568069746147"}}, "geometry": {"type": "Point", "coordinates": [142.97684343390986, -81.49226906546423]}}, {"type": "Feature", "properties": {"norad_id": 38038, "name": "ZIYUAN 1-02C (ZY 1-02C)", "group": "resource", "lat": -18.327729970582467, "lon": -120.73578095781652, "alt_km": 769.5794716227238, "timestamp": "2025-12-22T05:49:03.139118+00:00", "meta": {"OBJECT_NAME": "ZIYUAN 1-02C (ZY 1-02C)", "OBJECT_ID": "2011-079A", "EPOCH": "2025-12-21T21:06:41.721984", "MEAN_MOTION": 14.38021084, "ECCENTRICITY": 0.0007486, "INCLINATION": 98.4327, "RA_OF_ASC_NODE": 61.7249, "ARG_OF_PERICENTER": 114.3993, "MEAN_ANOMALY": 7.1183, "EPHEMERIS_TYPE": 0, "CLASSIFICATION_TYPE": "U", "NORAD_CAT_ID": 38038, "ELEMENT_SET_NO": 999, "REV_AT_EPOCH": 73372, "BSTAR": 0.00012048, "MEAN_MOTION_DOT": 3.21e-06, "MEAN_MOTION_DDOT": 0}, "tle": {"line1": "1 38038U 11079A   25355.87964956  .00000321  00000+0  12048-3 0  9997", "line2": "2 38038  98.4327  61.7249 0007486 114.3993   7.1183 14.38021084733724"}}, "geometry": {"type": "Point", "coordinates": [-120.73578095781652, -18.327729970582467]}}, {"type": "Feature", "properties": {"norad_id": 38338, "name": "ARIRANG-3 (KOMPSAT-3)", "group": "resource", "lat": -78.7706685198102, "lon": -1.509241909844691, "alt_km": 691.9234682734104, "timestamp": "2025-12-22T05:49:03.139129+00:00", "meta": {"OBJECT_NAME": "ARIRANG-3 (KOMPSAT-3)", "OBJECT_ID": "2012-025B", "EPOCH": "2025-12-21T20:20:12.276384", "MEAN_MOTION": 14.61723635, "ECCENTRICITY": 0.0004833, "INCLINATION": 98.3336, "RA_OF_ASC_NODE": 310.5059, "ARG_OF_PERICENTER": 306.637, "MEAN_ANOMALY": 53.4385, "EPHEMERIS_TYPE": 0, "CLASSIFICATION_TYPE": "U", "NORAD_CAT_ID": 38338, "ELEMENT_SET_NO": 999, "REV_AT_EPOCH": 72543, "BSTAR": 9.8213e-05, "MEAN_MOTION_DOT": 4.41e-06, "MEAN_MOTION_DDOT": 0}, "tle": {"line1": "1 38338U 12025B   25355.84736431  .00000441  00000+0  98213-4 0  9996", "line2": "2 38338  98.3336 310.5059 0004833 306.6370  53.4385 14.61723635725432"}}, "geometry": {"type": "Point", "coordinates": [-1.509241909844691, -78.7706685198102]}}, {"type": "Feature", "properties": {"norad_id": 38709, "name": "EXACTVIEW-1 (ADS-1B)", "group": "resource", "lat": 77.67924368334924, "lon": -28.89515750621136, "alt_km": 806.4330302481603, "timestamp": "2025-12-22T05:49:03.139139+00:00", "meta": {"OBJECT_NAME": "EXACTVIEW-1 (ADS-1B)", "OBJECT_ID": "2012-039C", "EPOCH": "2025-12-21T17:33:37.506240", "MEAN_MOTION": 14.24911374, "ECCENTRICITY": 0.0010233, "INCLINATION": 98.9637, "RA_OF_ASC_NODE": 104.3104, "ARG_OF_PERICENTER": 327.5042, "MEAN_ANOMALY": 32.5505, "EPHEMERIS_TYPE": 0, "CLASSIFICATION_TYPE": "U", "NORAD_CAT_ID": 38709, "ELEMENT_SET_NO": 999, "REV_AT_EPOCH": 69743, "BSTAR": 7.2445e-05, "MEAN_MOTION_DOT": 1.23e-06, "MEAN_MOTION_DDOT": 0}, "tle": {"line1": "1 38709U 12039C   25355.73168410  .00000123  00000+0  72445-4 0  9993", "line2": "2 38709  98.9637 104.3104 0010233 327.5042  32.5505 14.24911374697431"}}, "geometry": {"type": "Point", "coordinates": [-28.89515750621136, 77.67924368334924]}}, {"type": "Feature", "properties": {"norad_id": 38755, "name": "SPOT 6", "group": "resource", "lat": -15.908573440946858, "lon": -121.49098296305327, "alt_km": 703.1659495155409, "timestamp": "2025-12-22T05:49:03.139150+00:00", "meta": {"OBJECT_NAME": "SPOT 6", "OBJECT_ID": "2012-047A", "EPOCH": "2025-12-21T20:41:22.955136", "MEAN_MOTION": 14.58538888, "ECCENTRICITY": 0.0001315, "INCLINATION": 98.1566, "RA_OF_ASC_NODE": 60.4786, "ARG_OF_PERICENTER": 76.9022, "MEAN_ANOMALY": 283.2324, "EPHEMERIS_TYPE": 0, "CLASSIFICATION_TYPE": "U", "NORAD_CAT_ID": 38755, "ELEMENT_SET_NO": 999, "REV_AT_EPOCH": 70720, "BSTAR": 3.5396e-05, "MEAN_MOTION_DOT": 1.19e-06, "MEAN_MOTION_DDOT": 0}, "tle": {"line1": "1 38755U 12047A   25355.86207124  .00000119  00000+0  35396-4 0  9992", "line2": "2 38755  98.1566  60.4786 0001315  76.9022 283.2324 14.58538888707200"}}, "geometry": {"type": "Point", "coordinates": [-121.49098296305327, -15.908573440946858]}}]}